OBJECT_NAME,OBJECT_ID,EPOCH,MEAN_MOTION,ECCENTRICITY,INCLINATION,RA_OF_ASC_NODE,ARG_OF_PERICENTER,MEAN_ANOMALY,EPHEMERIS_TYPE,CLASSIFICATION_TYPE,NORAD_CAT_ID,ELEMENT_SET_NO,REV_AT_EPOCH,BSTAR,MEAN_MOTION_DOT,MEAN_MOTION_DDOT
S-NET A,2018-014J,2026-06-11T17:17:59.025120,15.16629419,.0009847,97.5388,67.7398,43.1427,317.0576,0,U,43188,999,45793,.22453E-3,.4327E-4,0
S-NET C,2018-014K,2026-06-11T16:06:25.786656,15.16583570,.0011029,97.5404,67.7643,35.4781,324.7183,0,U,43189,999,45647,.25777E-3,.4973E-4,0
PAZ,2018-020A,2026-06-11T21:40:55.132896,15.19154499,.0001686,97.4447,170.3643,87.9175,272.2252,0,U,43215,999,46020,.80332E-4,.162E-4,0
GOES 17,2018-022A,2026-06-11T14:31:54.100992,1.00270815,.0000476,0.9223,85.8105,24.8484,277.7766,0,U,43226,999,3036,0,-.166E-5,0
LKW-4,2018-025A,2026-06-11T10:36:28.160640,15.61815433,.0001765,97.6336,332.8679,322.7061,37.4073,0,U,43236,999,45913,.41619E-3,.36018E-3,0
ZHUHAI-1 OVS-02,2018-040B,2026-06-11T20:25:22.395360,15.24954451,.0001481,97.0390,180.3970,278.7589,81.3482,0,U,43440,999,45190,.28367E-3,.7004E-4,0
ZHUHAI-1 OHS-02,2018-040C,2026-06-11T20:08:11.238144,15.25803818,.0007555,97.0375,187.3200,242.5370,117.5101,0,U,43441,999,11346,.28038E-3,.7106E-4,0
GAOFEN-6,2018-048A,2026-06-11T15:35:58.443936,14.76588225,.0011395,97.8379,225.5422,185.7681,174.3400,0,U,43484,999,43257,.12384E-4,.37E-6,0
LUOJIA-1 01,2018-048B,2026-06-11T20:37:18.765408,14.87267056,.0009966,97.8104,241.1324,132.2750,227.9313,0,U,43485,999,43342,.21755E-3,.1908E-4,0
PAKTES 1A,2018-056A,2026-06-11T19:09:37.823616,14.99086395,.0022384,98.1302,319.0553,123.0962,237.2412,0,U,43529,999,43111,.1983E-3,.2354E-4,0
PRSS-1,2018-056B,2026-06-11T20:32:30.859872,14.81978373,.0001694,97.7821,230.8732,75.7993,284.3408,0,U,43530,999,42764,.2577E-4,.153E-5,0
HAIYANG-1C,2018-068A,2026-06-11T19:16:40.740384,14.34177440,.0012005,98.5191,235.1890,108.3692,251.8799,0,U,43609,999,40631,.64005E-4,.136E-5,0
SSTL S1-4,2018-071A,2026-06-11T20:55:20.046720,14.96176933,.0001529,97.5048,34.7079,102.2246,257.9147,0,U,43618,999,42214,.13617E-3,.1479E-4,0
HAIYANG-2B,2018-081A,2026-06-11T20:49:27.259968,13.79305095,.0000665,99.3288,171.7040,11.2347,348.8820,0,U,43655,999,38419,-.26999E-3,-.321E-5,0
CFOSAT,2018-083A,2026-06-11T19:33:05.035104,15.16341492,.0002426,97.3603,167.5038,94.7358,265.4152,0,U,43662,999,42162,.16472E-3,.3129E-4,0
TEN-KOH,2018-084G,2026-06-11T12:44:51.861120,15.02920830,.0010975,98.0781,354.6565,131.3558,228.8611,0,U,43677,999,41531,.1624E-3,.2116E-4,0
DIWATA-2B,2018-084H,2026-06-11T20:02:07.609920,15.00428066,.0012215,98.1180,358.8112,187.4845,172.6197,0,U,43678,999,41541,.21701E-3,.2667E-4,0
STARS-AO,2018-084J,2026-06-11T12:47:26.131776,15.16990917,.0002518,98.0515,16.1563,149.6386,210.4991,0,U,43679,999,41661,.30143E-3,.588E-4,0
AUTCUBE 2,2018-084K,2026-06-11T12:45:43.485120,15.10050735,.0010208,98.0717,8.4070,66.2534,293.9763,0,U,43681,999,41607,.22292E-3,.3559E-4,0
METOP-C,2018-087A,2026-06-11T18:56:08.691936,14.21510647,.0001574,98.6645,222.4910,135.3466,224.7839,0,U,43689,999,39406,.5571E-4,.79E-6,0
ES'HAIL 2,2018-090A,2026-06-11T15:04:43.773888,1.00269967,.0001431,0.0167,320.3790,157.1033,34.4948,0,U,43700,999,2762,0,.161E-5,0
MOHAMMED VI-B,2018-095A,2026-06-11T19:48:31.366656,14.77109880,.0001231,97.9557,235.2244,93.4571,266.6780,0,U,43717,999,40739,.71732E-4,.456E-5,0
HYSIS,2018-096A,2026-06-11T20:46:27.317280,14.78683312,.000178,97.9841,229.6553,109.9583,250.1820,0,U,43719,999,40663,.85557E-4,.575E-5,0
COSMOS 2530 (RODNIK-S 16),2018-097A,2026-06-11T19:44:17.105280,12.42880944,.0020372,82.5147,225.6096,50.9667,309.3222,0,U,43751,999,34162,-.60778E-4,.2E-7,0
COSMOS 2531 (RODNIK-S 17),2018-097B,2026-06-11T20:16:33.205728,12.42912264,.0017834,82.5193,226.6523,69.3862,290.9128,0,U,43752,999,34164,-.55143E-3,-.66E-6,0
COSMOS 2532 (RODNIK-S 18),2018-097C,2026-06-11T20:57:15.138432,12.42909013,.0019226,82.5137,225.4232,71.2192,289.0971,0,U,43753,999,34161,-.81762E-3,-.103E-5,0
MINXSS-2,2018-099A,2026-06-11T17:19:49.229184,15.46533045,.0006295,97.4547,238.8477,277.9918,82.0617,0,U,43758,999,41328,.62752E-3,.31185E-3,0
SIRION PATHFINDER-2,2018-099B,2026-06-11T16:45:08.281728,15.14499537,.00076,97.4258,211.8858,327.5787,32.4978,0,U,43759,999,41179,.23404E-3,.4246E-4,0
AISTECHSAT 2,2018-099L,2026-06-11T16:11:17.205216,15.15394676,.0003578,97.4302,210.8289,335.8505,24.2559,0,U,43768,999,41144,.28956E-3,.5403E-4,0
FOX-1CLIFF (AO-95),2018-099N,2026-06-11T02:42:51.950592,15.26583130,.00086139,97.4393,222.3819,20.0469,340.1107,0,U,43770,999,41229,.4121126E-3,.10727E-3,0
