S-NET A                 
1 43188U 18014J   26162.72082205  .00004327  00000+0  22453-3 0  9995
2 43188  97.5388  67.7398 0009847  43.1427 317.0576 15.16629419457936
S-NET C                 
1 43189U 18014K   26162.67113179  .00004973  00000+0  25777-3 0  9994
2 43189  97.5404  67.7643 0011029  35.4781 324.7183 15.16583570456475
PAZ                     
1 43215U 18020A   26162.90341589  .00001620  00000+0  80332-4 0  9990
2 43215  97.4447 170.3643 0001686  87.9175 272.2252 15.19154499460206
GOES 17                 
1 43226U 18022A   26162.60548728 -.00000166  00000+0  00000+0 0  9999
2 43226   0.9223  85.8105 0000476  24.8484 277.7766  1.00270815 30367
LKW-4                   
1 43236U 18025A   26162.44199260  .00036018  00000+0  41619-3 0  9997
2 43236  97.6336 332.8679 0001765 322.7061  37.4073 15.61815433459135
ZHUHAI-1 OVS-02         
1 43440U 18040B   26162.85095365  .00007004  00000+0  28367-3 0  9995
2 43440  97.0390 180.3970 0001481 278.7589  81.3482 15.24954451451908
ZHUHAI-1 OHS-02         
1 43441U 18040C   26162.83901896  .00007106  00000+0  28038-3 0  9997
2 43441  97.0375 187.3200 0007555 242.5370 117.5101 15.25803818113467
GAOFEN-6                
1 43484U 18048A   26162.64998199  .00000037  00000+0  12384-4 0  9997
2 43484  97.8379 225.5422 0011395 185.7681 174.3400 14.76588225432573
LUOJIA-1 01             
1 43485U 18048B   26162.85924497  .00001908  00000+0  21755-3 0  9990
2 43485  97.8104 241.1324 0009966 132.2750 227.9313 14.87267056433421
PAKTES 1A               
1 43529U 18056A   26162.79835444  .00002354  00000+0  19830-3 0  9991
2 43529  98.1302 319.0553 0022384 123.0962 237.2412 14.99086395431111
PRSS-1                  
1 43530U 18056B   26162.85591273  .00000153  00000+0  25770-4 0  9995
2 43530  97.7821 230.8732 0001694  75.7993 284.3408 14.81978373427649
HAIYANG-1C              
1 43609U 18068A   26162.80324931  .00000136  00000+0  64005-4 0  9990
2 43609  98.5191 235.1890 0012005 108.3692 251.8799 14.34177440406312
SSTL S1-4               
1 43618U 18071A   26162.87175980  .00001479  00000+0  13617-3 0  9992
2 43618  97.5048  34.7079 0001529 102.2246 257.9147 14.96176933422148
HAIYANG-2B              
1 43655U 18081A   26162.86767662 -.00000321  00000+0 -26999-3 0  9991
2 43655  99.3288 171.7040 0000665  11.2347 348.8820 13.79305095384199
CFOSAT                  
1 43662U 18083A   26162.81464161  .00003129  00000+0  16472-3 0  9996
2 43662  97.3603 167.5038 0002426  94.7358 265.4152 15.16341492421627
TEN-KOH                 
1 43677U 18084G   26162.53115580  .00002116  00000+0  16240-3 0  9998
2 43677  98.0781 354.6565 0010975 131.3558 228.8611 15.02920830415316
DIWATA-2B               
1 43678U 18084H   26162.83481030  .00002667  00000+0  21701-3 0  9997
2 43678  98.1180 358.8112 0012215 187.4845 172.6197 15.00428066415413
STARS-AO                
1 43679U 18084J   26162.53294134  .00005880  00000+0  30143-3 0  9992
2 43679  98.0515  16.1563 0002518 149.6386 210.4991 15.16990917416616
AUTCUBE 2               
1 43681U 18084K   26162.53175330  .00003559  00000+0  22292-3 0  9998
2 43681  98.0717   8.4070 0010208  66.2534 293.9763 15.10050735416076
METOP-C                 
1 43689U 18087A   26162.78898949  .00000079  00000+0  55710-4 0  9990
2 43689  98.6645 222.4910 0001574 135.3466 224.7839 14.21510647394063
ES'HAIL 2               
1 43700U 18090A   26162.62828442  .00000161  00000+0  00000+0 0  9991
2 43700   0.0167 320.3790 0001431 157.1033  34.4948  1.00269967 27622
MOHAMMED VI-B           
1 43717U 18095A   26162.82536304  .00000456  00000+0  71732-4 0  9991
2 43717  97.9557 235.2244 0001231  93.4571 266.6780 14.77109880407397
HYSIS                   
1 43719U 18096A   26162.86559395  .00000575  00000+0  85557-4 0  9995
2 43719  97.9841 229.6553 0001780 109.9583 250.1820 14.78683312406637
COSMOS 2530 (RODNIK-S *)
1 43751U 18097A   26162.82242020  .00000002  00000+0 -60778-4 0  9996
2 43751  82.5147 225.6096 0020372  50.9667 309.3222 12.42880944341625
COSMOS 2531 (RODNIK-S *)
1 43752U 18097B   26162.84482877 -.00000066  00000+0 -55143-3 0  9995
2 43752  82.5193 226.6523 0017834  69.3862 290.9128 12.42912264341646
COSMOS 2532 (RODNIK-S *)
1 43753U 18097C   26162.87309188 -.00000103  00000+0 -81762-3 0  9990
2 43753  82.5137 225.4232 0019226  71.2192 289.0971 12.42909013341614
MINXSS-2                
1 43758U 18099A   26162.72209756  .00031185  00000+0  62752-3 0  9991
2 43758  97.4547 238.8477 0006295 277.9918  82.0617 15.46533045413287
SIRION PATHFINDER-2     
1 43759U 18099B   26162.69801252  .00004246  00000+0  23404-3 0  9996
2 43759  97.4258 211.8858 0007600 327.5787  32.4978 15.14499537411793
AISTECHSAT 2            
1 43768U 18099L   26162.67450469  .00005403  00000+0  28956-3 0  9997
2 43768  97.4302 210.8289 0003578 335.8505  24.2559 15.15394676411445
FOX-1CLIFF (AO-95)      
1 43770U 18099N   26162.11310128  .00010727  00000+0  41211-3 0  9990
2 43770  97.4393 222.3819 0008613  20.0469 340.1107 15.26583130412292
